[
    {
        "Altitude(m)": 562976.3522806787,
        "Argument of Periapsis(deg)": 0.013245982221427002,
        "Eccentricity": 0.0,
        "Inclination(deg)": 53.0,
        "Latitude(deg)": -31.231846119975692,
        "Longitude(deg)": -159.54768391458578,
        "Mean Anomaly(deg)": 220.18318573515512,
        "RAAN(deg)": 94.98028673705603,
        "Satellite Name": "Starlink Shell 1 430",
        "Satellite Number": 430,
        "Semi-Major Axis(m)": 6931778.249405717,
        "Time(s)": 380
    },
    {
        "Altitude(m)": 563151.6607133878,
        "Argument of Periapsis(deg)": 0.013594560700938237,
        "Eccentricity": 0.0,
        "Inclination(deg)": 53.0,
        "Latitude(deg)": -31.677649799064593,
        "Longitude(deg)": -159.0733664338364,
        "Mean Anomaly(deg)": 220.81001693871193,
        "RAAN(deg)": 94.97976796697857,
        "Satellite Name": "Starlink Shell 1 430",
        "Satellite Number": 430,
        "Semi-Major Axis(m)": 6931778.249405717,
        "Time(s)": 390
    },
    {
        "Altitude(m)": 563326.8855481915,
        "Argument of Periapsis(deg)": 0.013943139180449475,
        "Eccentricity": 0.0,
        "Inclination(deg)": 53.0,
        "Latitude(deg)": -32.12130613837768,
        "Longitude(deg)": -158.5941299306734,
        "Mean Anomaly(deg)": 221.43684814226862,
        "RAAN(deg)": 94.9792491969011,
        "Satellite Name": "Starlink Shell 1 430",
        "Satellite Number": 430,
        "Semi-Major Axis(m)": 6931778.249405717,
        "Time(s)": 400
    },
    {
        "Altitude(m)": 563501.9605373557,
        "Argument of Periapsis(deg)": 0.014291717659960712,
        "Eccentricity": 0.0,
        "Inclination(deg)": 53.0,
        "Latitude(deg)": -32.562758461005465,
        "Longitude(deg)": -158.10986457693653,
        "Mean Anomaly(deg)": 222.06367934582534,
        "RAAN(deg)": 94.97873042682362,
        "Satellite Name": "Starlink Shell 1 430",
        "Satellite Number": 430,
        "Semi-Major Axis(m)": 6931778.249405717,
        "Time(s)": 410
    },
    {
        "Altitude(m)": 563676.8193538731,
        "Argument of Periapsis(deg)": 0.014640296139471948,
        "Eccentricity": 0.0,
        "Inclination(deg)": 53.0,
        "Latitude(deg)": -33.00194878937447,
        "Longitude(deg)": -157.62045989893483,
        "Mean Anomaly(deg)": 222.69051054938203,
        "RAAN(deg)": 94.97821165674615,
        "Satellite Name": "Starlink Shell 1 430",
        "Satellite Number": 430,
        "Semi-Major Axis(m)": 6931778.249405717,
        "Time(s)": 420
    },
    {
        "Altitude(m)": 563851.3956211689,
        "Argument of Periapsis(deg)": 0.014988874618983185,
        "Eccentricity": 0.0,
        "Inclination(deg)": 53.0,
        "Latitude(deg)": -33.43881781285329,
        "Longitude(deg)": -157.12580431372285,
        "Mean Anomaly(deg)": 223.31734175293875,
        "RAAN(deg)": 94.97769288666868,
        "Satellite Name": "Starlink Shell 1 430",
        "Satellite Number": 430,
        "Semi-Major Axis(m)": 6931778.249405717,
        "Time(s)": 430
    },
    {
        "Altitude(m)": 564025.6229428092,
        "Argument of Periapsis(deg)": 0.015337453098494424,
        "Eccentricity": 0.0,
        "Inclination(deg)": 53.0,
        "Latitude(deg)": -33.87330485532316,
        "Longitude(deg)": -156.62578467151118,
        "Mean Anomaly(deg)": 223.94417295649544,
        "RAAN(deg)": 94.9771741165912,
        "Satellite Name": "Starlink Shell 1 430",
        "Satellite Number": 430,
        "Semi-Major Axis(m)": 6931778.249405717,
        "Time(s)": 440
    },
    {
        "Altitude(m)": 564199.4349321972,
        "Argument of Periapsis(deg)": 0.01568603157800566,
        "Eccentricity": 0.0,
        "Inclination(deg)": 53.0,
        "Latitude(deg)": -34.30534784278561,
        "Longitude(deg)": -156.12028731751536,
        "Mean Anomaly(deg)": 224.57100416005218,
        "RAAN(deg)": 94.97665534651374,
        "Satellite Name": "Starlink Shell 1 430",
        "Satellite Number": 430,
        "Semi-Major Axis(m)": 6931778.249405717,
        "Time(s)": 450
    },
    {
        "Altitude(m)": 564372.7652422683,
        "Argument of Periapsis(deg)": 0.0160346100575169,
        "Eccentricity": 0.0,
        "Inclination(deg)": 53.0,
        "Latitude(deg)": -34.734883271096145,
        "Longitude(deg)": -155.6091976479452,
        "Mean Anomaly(deg)": 225.19783536360893,
        "RAAN(deg)": 94.97613657643626,
        "Satellite Name": "Starlink Shell 1 430",
        "Satellite Number": 430,
        "Semi-Major Axis(m)": 6931778.249405717,
        "Time(s)": 460
    },
    {
        "Altitude(m)": 564545.5475951284,
        "Argument of Periapsis(deg)": 0.016383188537028134,
        "Eccentricity": 0.0,
        "Inclination(deg)": 53.0,
        "Latitude(deg)": -35.16184617391314,
        "Longitude(deg)": -155.09239967347764,
        "Mean Anomaly(deg)": 225.82466656716554,
        "RAAN(deg)": 94.97561780635878,
        "Satellite Name": "Starlink Shell 1 430",
        "Satellite Number": 430,
        "Semi-Major Axis(m)": 6931778.249405717,
        "Time(s)": 470
    },
    {
        "Altitude(m)": 564717.7158116874,
        "Argument of Periapsis(deg)": 0.01673176701653937,
        "Eccentricity": 0.0,
        "Inclination(deg)": 53.0,
        "Latitude(deg)": -35.5861700909599,
        "Longitude(deg)": -154.5697771035765,
        "Mean Anomaly(deg)": 226.45149777072234,
        "RAAN(deg)": 94.9750990362813,
        "Satellite Name": "Starlink Shell 1 430",
        "Satellite Number": 430,
        "Semi-Major Axis(m)": 6931778.249405717,
        "Time(s)": 480
    },
    {
        "Altitude(m)": 564889.2038411845,
        "Argument of Periapsis(deg)": 0.017080345496050607,
        "Eccentricity": 0.0,
        "Inclination(deg)": 53.0,
        "Latitude(deg)": -36.007787036714184,
        "Longitude(deg)": -154.0412129264194,
        "Mean Anomaly(deg)": 227.0783289742791,
        "RAAN(deg)": 94.97458026620384,
        "Satellite Name": "Starlink Shell 1 430",
        "Satellite Number": 430,
        "Semi-Major Axis(m)": 6931778.249405717,
        "Time(s)": 490
    },
    {
        "Altitude(m)": 565059.9457906939,
        "Argument of Periapsis(deg)": 0.017428923975561842,
        "Eccentricity": 0.0,
        "Inclination(deg)": 53.0,
        "Latitude(deg)": -36.42662746964562,
        "Longitude(deg)": -153.50658899782923,
        "Mean Anomaly(deg)": 227.70516017783572,
        "RAAN(deg)": 94.97406149612637,
        "Satellite Name": "Starlink Shell 1 430",
        "Satellite Number": 430,
        "Semi-Major Axis(m)": 6931778.249405717,
        "Time(s)": 500
    },
    {
        "Altitude(m)": 565229.8759545004,
        "Argument of Periapsis(deg)": 0.01777750245507308,
        "Eccentricity": 0.0,
        "Inclination(deg)": 53.0,
        "Latitude(deg)": -36.842620262127554,
        "Longitude(deg)": -152.96578715262743,
        "Mean Anomaly(deg)": 228.3319913813925,
        "RAAN(deg)": 94.9735427260489,
        "Satellite Name": "Starlink Shell 1 430",
        "Satellite Number": 430,
        "Semi-Major Axis(m)": 6931778.249405717,
        "Time(s)": 510
    },
    {
        "Altitude(m)": 565398.9288434072,
        "Argument of Periapsis(deg)": 0.018126080934584315,
        "Eccentricity": 0.0,
        "Inclination(deg)": 53.0,
        "Latitude(deg)": -37.25569267117109,
        "Longitude(deg)": -152.41868881322043,
        "Mean Anomaly(deg)": 228.95882258494913,
        "RAAN(deg)": 94.97302395597143,
        "Satellite Name": "Starlink Shell 1 430",
        "Satellite Number": 430,
        "Semi-Major Axis(m)": 6931778.249405717,
        "Time(s)": 520
    },
    {
        "Altitude(m)": 565567.0392139116,
        "Argument of Periapsis(deg)": 0.018474659414095554,
        "Eccentricity": 0.0,
        "Inclination(deg)": 53.0,
        "Latitude(deg)": -37.66577031013453,
        "Longitude(deg)": -151.86517460886054,
        "Mean Anomaly(deg)": 229.58565378850588,
        "RAAN(deg)": 94.97250518589394,
        "Satellite Name": "Starlink Shell 1 430",
        "Satellite Number": 430,
        "Semi-Major Axis(m)": 6931778.249405717,
        "Time(s)": 530
    },
    {
        "Altitude(m)": 565734.1420972607,
        "Argument of Periapsis(deg)": 0.018823237893606792,
        "Eccentricity": 0.0,
        "Inclination(deg)": 53.0,
        "Latitude(deg)": -38.072777121571285,
        "Longitude(deg)": -151.3051255190416,
        "Mean Anomaly(deg)": 230.2124849920626,
        "RAAN(deg)": 94.97198641581647,
        "Satellite Name": "Starlink Shell 1 430",
        "Satellite Number": 430,
        "Semi-Major Axis(m)": 6931778.249405717,
        "Time(s)": 540
    },
    {
        "Altitude(m)": 565900.1728283718,
        "Argument of Periapsis(deg)": 0.019171816373118027,
        "Eccentricity": 0.0,
        "Inclination(deg)": 53.0,
        "Latitude(deg)": -38.47663535140164,
        "Longitude(deg)": -150.73842251587124,
        "Mean Anomaly(deg)": 230.83931619561932,
        "RAAN(deg)": 94.97146764573901,
        "Satellite Name": "Starlink Shell 1 430",
        "Satellite Number": 430,
        "Semi-Major Axis(m)": 6931778.249405717,
        "Time(s)": 550
    },
    {
        "Altitude(m)": 566065.067074603,
        "Argument of Periapsis(deg)": 0.019520394852629266,
        "Eccentricity": 0.0,
        "Inclination(deg)": 53.0,
        "Latitude(deg)": -38.87726552459965,
        "Longitude(deg)": -150.16494621889132,
        "Mean Anomaly(deg)": 231.46614739917607,
        "RAAN(deg)": 94.97094887566153,
        "Satellite Name": "Starlink Shell 1 430",
        "Satellite Number": 430,
        "Semi-Major Axis(m)": 6931778.249405717,
        "Time(s)": 560
    }
]